[{"OBJECT_NAME":"TIANMU-1 07","OBJECT_ID":"2023-101A","EPOCH":"2026-03-06T13:47:20.454720","MEAN_MOTION":15.29118809,"ECCENTRICITY":0.00046097,"INCLINATION":97.2728,"RA_OF_ASC_NODE":118.5929,"ARG_OF_PERICENTER":142.4105,"MEAN_ANOMALY":217.7458,"EPHEMERIS_TYPE":0,"CLASSIFICATION_TYPE":"U","NORAD_CAT_ID":57399,"ELEMENT_SET_NO":999,"REV_AT_EPOCH":14596,"BSTAR":0.00029794732,"MEAN_MOTION_DOT":8.352e-5,"MEAN_MOTION_DDOT":0},{"OBJECT_NAME":"STARLINK-33820","OBJECT_ID":"2025-076R","EPOCH":"2026-03-09T02:07:40.280160","MEAN_MOTION":15.2759155,"ECCENTRICITY":0.00017722,"INCLINATION":42.9942,"RA_OF_ASC_NODE":324.6421,"ARG_OF_PERICENTER":222.3018,"MEAN_ANOMALY":137.7697,"EPHEMERIS_TYPE":0,"CLASSIFICATION_TYPE":"U","NORAD_CAT_ID":63584,"ELEMENT_SET_NO":999,"REV_AT_EPOCH":5174,"BSTAR":0.0010224918,"MEAN_MOTION_DOT":0.00027992,"MEAN_MOTION_DDOT":0}]
